H1 CPF 01  gfz 2021 03 21 13  5802 tandemx   
H2 1003001  6202 36605    2021 03 21 12 59 42 2021 03 26 00 00 42   120 1 1  0 0 0
H9
10 0 59298  32382.000000  0    4842043.367  -4872665.389   -536448.909
10 0 59298  32502.000000  0    4624210.565  -4904889.907  -1431557.467
10 0 59298  32622.000000  0    4325883.933  -4846980.254  -2301501.780
10 0 59298  32742.000000  0    3953916.028  -4698672.543  -3131023.489
10 0 59298  32862.000000  0    3516431.642  -4461417.323  -3905606.610
10 0 59298  32982.000000  0    3022648.053  -4138366.141  -4611732.441
10 0 59298  33102.000000  0    2482676.941  -3734323.886  -5237112.770
10 0 59298  33222.000000  0    1907313.566  -3255669.589  -5770895.558
10 0 59298  33342.000000  0    1307820.294  -2710249.812  -6203842.680
10 0 59298  33462.000000  0     695706.423  -2107245.924  -6528479.920
10 0 59298  33582.000000  0      82508.587  -1457016.005  -6739215.563
10 0 59298  33702.000000  0    -520422.830   -770916.070  -6832426.075
10 0 59298  33822.000000  0   -1102128.101    -61104.290  -6806510.805
10 0 59298  33942.000000  0   -1652232.630    659669.405  -6661915.944
10 0 59298  34062.000000  0   -2161127.642   1378286.239  -6401127.373
10 0 59298  34182.000000  0   -2620134.149   2081491.359  -6028632.608
10 0 59298  34302.000000  0   -3021649.807   2756132.844  -5550852.664
10 0 59298  34422.000000  0   -3359276.003   3389405.431  -4976042.983
10 0 59298  34542.000000  0   -3627923.893   3969094.069  -4314162.584
10 0 59298  34662.000000  0   -3823895.591   4483812.459  -3576711.124
10 0 59298  34782.000000  0   -3944937.415   4923230.839  -2776537.036
10 0 59298  34902.000000  0   -3990266.101   5278289.004  -1927620.295
10 0 59298  35022.000000  0   -3960567.198   5541390.004  -1044831.083
10 0 59298  35142.000000  0   -3857963.348   5706569.645   -143666.980
10 0 59298  35262.000000  0   -3685952.432   5769633.522    760024.775
10 0 59298  35382.000000  0   -3449318.499   5728260.785   1650333.870
10 0 59298  35502.000000  0   -3154014.942   5582070.871   2511577.727
10 0 59298  35622.000000  0   -2807022.939   5332648.314   3328587.539
10 0 59298  35742.000000  0   -2416191.054   4983527.680   4086981.369
10 0 59298  35862.000000  0   -1990059.794   4540140.384   4773421.238
10 0 59298  35982.000000  0   -1537675.796   4009724.073   5375849.198
10 0 59298  36102.000000  0   -1068399.080   3401196.609   5883698.166
10 0 59298  36222.000000  0    -591709.071   2724997.941   6288072.743
10 0 59298  36342.000000  0    -117013.650   1992904.362   6581898.749
10 0 59298  36462.000000  0     346535.412   1217819.813   6760041.241
10 0 59298  36582.000000  0     790218.320    413545.518   6819388.960
10 0 59298  36702.000000  0    1205910.198   -405465.470   6758904.486
10 0 59298  36822.000000  0    1586229.069  -1224367.259   6579642.382
10 0 59298  36942.000000  0    1924667.013  -2028189.776   6284731.995
10 0 59298  37062.000000  0    2215702.215  -2802112.447   5879327.108
10 0 59298  37182.000000  0    2454890.547  -3531739.447   5370521.132
10 0 59298  37302.000000  0    2638934.382  -4203370.611   4767228.103
10 0 59298  37422.000000  0    2765727.892  -4804263.520   4080032.428
10 0 59298  37542.000000  0    2834378.767  -5322882.359   3321006.661
10 0 59298  37662.000000  0    2845204.065  -5749127.296   2503500.886
10 0 59298  37782.000000  0    2799700.451  -6074539.359   1641905.812
10 0 59298  37902.000000  0    2700488.883  -6292473.458    751395.073
10 0 59298  38022.000000  0    2551237.172  -6398238.314   -152347.174
10 0 59298  38142.000000  0    2356560.341  -6389199.192  -1053411.337
10 0 59298  38262.000000  0    2121900.610  -6264837.170  -1935952.844
10 0 59298  38382.000000  0    1853391.073  -6026766.228  -2784478.009
10 0 59298  38502.000000  0    1557705.789  -5678707.399  -3584123.529
10 0 59298  38622.000000  0    1241901.745  -5226418.246  -4320917.975
10 0 59298  38742.000000  0     913258.306  -4677585.889  -4982023.826
10 0 59298  38862.000000  0     579115.651  -4041684.743  -5555955.320
10 0 59298  38982.000000  0     246716.505  -3329802.802  -6032769.625
10 0 59298  39102.000000  0     -76945.440  -2554440.419  -6404228.189
10 0 59298  39222.000000  0    -385267.386  -1729286.632  -6663927.410
10 0 59298  39342.000000  0    -672167.185   -868977.294  -6807398.309
10 0 59298  39462.000000  0    -932198.657     11161.748  -6832175.621
10 0 59298  39582.000000  0   -1160651.581    895382.295  -6737834.343
10 0 59298  39702.000000  0   -1353634.911   1767787.965  -6525995.938
10 0 59298  39822.000000  0   -1508141.544   2612612.552  -6200303.260
10 0 59298  39942.000000  0   -1622094.737   3414499.185  -5766366.399
10 0 59298  40062.000000  0   -1694375.259   4158777.335  -5231675.825
10 0 59298  40182.000000  0   -1724828.444   4831732.087  -4605484.958
10 0 59298  40302.000000  0   -1714251.523   5420862.253  -3898660.856
10 0 59298  40422.000000  0   -1664360.210   5915120.098  -3123504.243
10 0 59298  40542.000000  0   -1577734.991   6305127.831  -2293542.576
10 0 59298  40662.000000  0   -1457748.890   6583367.558  -1423298.005
10 0 59298  40782.000000  0   -1308477.184   6744337.223   -528032.708
10 0 59298  40902.000000  0   -1134591.569   6784669.685    376521.325
10 0 59298  41022.000000  0    -941240.448   6703211.763   1274446.226
10 0 59298  41142.000000  0    -733919.093   6501056.558   2149929.630
10 0 59298  41262.000000  0    -518332.575   6181527.755   2987552.261
10 0 59298  41382.000000  0    -300255.491   5750120.679   3772565.744
10 0 59298  41502.000000  0     -85392.671   5214402.369   4491157.035
10 0 59298  41622.000000  0     120756.897   4583869.666   5130698.070
10 0 59298  41742.000000  0     313030.363   3869766.977   5679964.733
10 0 59298  41862.000000  0     486720.294   3084879.175   6129330.000
10 0 59298  41982.000000  0     637681.170   2243294.044   6470928.730
10 0 59298  42102.000000  0     762421.245   1360143.905   6698788.950
10 0 59298  42222.000000  0     858178.224    451329.826   6808930.490
10 0 59298  42342.000000  0     922977.322   -466764.823   6799429.373
10 0 59298  42462.000000  0     955670.785  -1377568.803   6670450.609
10 0 59298  42582.000000  0     955958.219  -2264622.102   6424245.890
10 0 59298  42702.000000  0     924387.437  -3111873.830   6065117.398
10 0 59298  42822.000000  0     862335.190  -3903975.156   5599345.864
10 0 59298  42942.000000  0     771969.312  -4626559.034   5035084.935
10 0 59298  43062.000000  0     656193.297  -5266505.033   4382225.315
10 0 59298  43182.000000  0     518573.269  -5812186.486   3652227.604
10 0 59298  43302.000000  0     363248.255  -6253692.373   2857923.541
10 0 59298  43422.000000  0     194826.131  -6583017.564   2013289.859
10 0 59298  43542.000000  0      18267.440  -6794216.537   1133199.721
10 0 59298  43662.000000  0    -161239.608  -6883519.740    233155.739
10 0 59298  43782.000000  0    -338411.064  -6849405.545   -670993.064
10 0 59298  43902.000000  0    -508000.906  -6692624.684  -1563340.331
10 0 59298  44022.000000  0    -664933.357  -6416178.800  -2428210.007
10 0 59298  44142.000000  0    -804430.948  -6025255.678  -3250437.674
10 0 59298  44262.000000  0    -922135.380  -5527121.598  -4015640.623
10 0 59298  44382.000000  0   -1014217.712  -4930973.172  -4710469.965
10 0 59298  44502.000000  0   -1077475.358  -4247754.693  -5322838.929
10 0 59298  44622.000000  0   -1109414.075  -3489946.598  -5842125.499
10 0 59298  44742.000000  0   -1108313.094  -2671329.460  -6259346.950
10 0 59298  44862.000000  0   -1073272.572  -1806728.282  -6567304.104
10 0 59298  44982.000000  0   -1004242.853   -911743.091  -6760693.827
10 0 59298  45102.000000  0    -902035.525     -2470.412  -6836190.901
10 0 59298  45222.000000  0    -768315.136    904780.860  -6792498.170
10 0 59298  45342.000000  0    -605572.282   1793774.086  -6630365.896
10 0 59298  45462.000000  0    -417079.196   2648627.727  -6352580.357
10 0 59298  45582.000000  0    -206827.503   3454093.188  -5963922.670
10 0 59298  45702.000000  0      20551.793   4195824.897  -5471095.637
10 0 59298  45822.000000  0     259883.945   4860635.853  -4882618.555
10 0 59298  45942.000000  0     505560.115   5436736.947  -4208692.004
10 0 59298  46062.000000  0     751659.835   5913954.734  -3461031.162
10 0 59298  46182.000000  0     992083.704   6283921.766  -2652670.095
10 0 59298  46302.000000  0    1220693.644   6540235.955  -1797739.646
10 0 59298  46422.000000  0    1431457.571   6678584.277   -911221.262
10 0 59298  46542.000000  0    1618595.139   6696826.413     -8681.185
10 0 59298  46662.000000  0    1776720.318   6595034.512    894009.334
10 0 59298  46782.000000  0    1900976.524   6375488.913   1780960.530
10 0 59298  46902.000000  0    1987162.016   6042630.159   2636551.902
10 0 59298  47022.000000  0    2031841.951   5602968.011   3445715.069
10 0 59298  47142.000000  0    2032444.074   5064949.804   4194206.795
10 0 59298  47262.000000  0    1987334.759   4438790.067   4868865.170
10 0 59298  47382.000000  0    1895874.865   3736264.870   5457843.156
10 0 59298  47502.000000  0    1758453.073   2970480.938   5950812.091
10 0 59298  47622.000000  0    1576498.258   2155625.126   6339138.757
10 0 59298  47742.000000  0    1352469.006   1306695.639   6616031.877
10 0 59298  47862.000000  0    1089821.173    439221.643   6776654.127
10 0 59298  47982.000000  0     792954.440   -431020.778   6818200.412
10 0 59298  48102.000000  0     467138.479  -1288294.592   6739945.491
10 0 59298  48222.000000  0     118419.171  -2117186.796   6543256.203
10 0 59298  48342.000000  0    -246493.677  -2902885.739   6231569.042
10 0 59298  48462.000000  0    -620354.297  -3631447.327   5810332.026
10 0 59298  48582.000000  0    -995521.825  -4290042.981   5286913.308
10 0 59298  48702.000000  0   -1364113.403  -4867189.110   4670480.695
10 0 59298  48822.000000  0   -1718168.452  -5352956.124   3971848.661
99
